{"type": "FeatureCollection", "features": [ {"type": "Feature", "properties": {"norad_id": 67121, "name": "STARLINK-36124", "group": "last-30-days", "lat": 19.406807506957904, "lon": -107.68433967022985, "alt_km": 334.4806165302789, "timestamp": "2025-12-26T20:30:44.703751+00:00", "meta": {"OBJECT_NAME": "STARLINK-36124", "OBJECT_ID": "2025-299V", "EPOCH": "2025-12-26T14:00:04.000032", "MEAN_MOTION": 15.78751717, "ECCENTRICITY": 0.00016392, "INCLINATION": 42.9975, "RA_OF_ASC_NODE": 231.7542, "ARG_OF_PERICENTER": 264.8909, "MEAN_ANOMALY": 21.0033, "EPHEMERIS_TYPE": 0, "CLASSIFICATION_TYPE": "U", "NORAD_CAT_ID": 67121, "ELEMENT_SET_NO": 999, "REV_AT_EPOCH": 303, "BSTAR": -0.011064754, "MEAN_MOTION_DOT": -0.01766041, "MEAN_MOTION_DDOT": 0}, "tle": {"line1": "1 67121U 25299V   25360.58337963 -.01766041  00000+0 -11065-1 0  9994", "line2": "2 67121  42.9975 231.7542 0001639 264.8909  21.0033 15.78751717  3030"}}, "geometry": {"type": "Point", "coordinates": [-107.68433967022985, 19.406807506957904]}}, {"type": "Feature", "properties": {"norad_id": 67122, "name": "STARLINK-36188", "group": "last-30-days", "lat": 20.398451881953513, "lon": -106.38140735583191, "alt_km": 334.5260340061759, "timestamp": "2025-12-26T20:30:44.703759+00:00", "meta": {"OBJECT_NAME": "STARLINK-36188", "OBJECT_ID": "2025-299W", "EPOCH": "2025-12-26T14:00:04.000032", "MEAN_MOTION": 15.7876629, "ECCENTRICITY": 0.00017586, "INCLINATION": 42.9976, "RA_OF_ASC_NODE": 231.7507, "ARG_OF_PERICENTER": 256.8252, "MEAN_ANOMALY": 30.6338, "EPHEMERIS_TYPE": 0, "CLASSIFICATION_TYPE": "U", "NORAD_CAT_ID": 67122, "ELEMENT_SET_NO": 999, "REV_AT_EPOCH": 303, "BSTAR": -0.011063607, "MEAN_MOTION_DOT": -0.01767019, "MEAN_MOTION_DDOT": 0}, "tle": {"line1": "1 67122U 25299W   25360.58337963 -.01767019  00000+0 -11064-1 0  9990", "line2": "2 67122  42.9976 231.7507 0001758 256.8252  30.6338 15.78766290  3033"}}, "geometry": {"type": "Point", "coordinates": [-106.38140735583191, 20.398451881953513]}}, {"type": "Feature", "properties": {"norad_id": 67123, "name": "STARLINK-36151", "group": "last-30-days", "lat": 18.267432972632925, "lon": -109.14668694784271, "alt_km": 334.83270030224503, "timestamp": "2025-12-26T20:30:44.703769+00:00", "meta": {"OBJECT_NAME": "STARLINK-36151", "OBJECT_ID": "2025-299X", "EPOCH": "2025-12-26T14:00:04.000032", "MEAN_MOTION": 15.78744054, "ECCENTRICITY": 0.00017473, "INCLINATION": 42.9979, "RA_OF_ASC_NODE": 231.7593, "ARG_OF_PERICENTER": 257.6513, "MEAN_ANOMALY": 26.4539, "EPHEMERIS_TYPE": 0, "CLASSIFICATION_TYPE": "U", "NORAD_CAT_ID": 67123, "ELEMENT_SET_NO": 999, "REV_AT_EPOCH": 303, "BSTAR": -0.011027611, "MEAN_MOTION_DOT": -0.01760373, "MEAN_MOTION_DDOT": 0}, "tle": {"line1": "1 67123U 25299X   25360.58337963 -.01760373  00000+0 -11028-1 0  9997", "line2": "2 67123  42.9979 231.7593 0001747 257.6513  26.4539 15.78744054  3039"}}, "geometry": {"type": "Point", "coordinates": [-109.14668694784271, 18.267432972632925]}}, {"type": "Feature", "properties": {"norad_id": 67124, "name": "STARLINK-36195", "group": "last-30-days", "lat": 21.461597420796373, "lon": -104.9513185936257, "alt_km": 334.4086564893096, "timestamp": "2025-12-26T20:30:44.703780+00:00", "meta": {"OBJECT_NAME": "STARLINK-36195", "OBJECT_ID": "2025-299Y", "EPOCH": "2025-12-26T14:00:04.000032", "MEAN_MOTION": 15.78769022, "ECCENTRICITY": 0.00018278, "INCLINATION": 42.9979, "RA_OF_ASC_NODE": 231.7466, "ARG_OF_PERICENTER": 256.16, "MEAN_ANOMALY": 33.0025, "EPHEMERIS_TYPE": 0, "CLASSIFICATION_TYPE": "U", "NORAD_CAT_ID": 67124, "ELEMENT_SET_NO": 999, "REV_AT_EPOCH": 303, "BSTAR": -0.011004571, "MEAN_MOTION_DOT": -0.01758974, "MEAN_MOTION_DDOT": 0}, "tle": {"line1": "1 67124U 25299Y   25360.58337963 -.01758974  00000+0 -11005-1 0  9997", "line2": "2 67124  42.9979 231.7466 0001827 256.1600  33.0025 15.78769022  3035"}}, "geometry": {"type": "Point", "coordinates": [-104.9513185936257, 21.461597420796373]}}, {"type": "Feature", "properties": {"norad_id": 67125, "name": "STARLINK-36219", "group": "last-30-days", "lat": 22.46865445251839, "lon": -103.56144778429088, "alt_km": 334.2001587521172, "timestamp": "2025-12-26T20:30:44.703789+00:00", "meta": {"OBJECT_NAME": "STARLINK-36219", "OBJECT_ID": "2025-299Z", "EPOCH": "2025-12-26T14:00:04.000032", "MEAN_MOTION": 15.787833, "ECCENTRICITY": 0.00017764, "INCLINATION": 42.9975, "RA_OF_ASC_NODE": 231.742, "ARG_OF_PERICENTER": 257.2326, "MEAN_ANOMALY": 33.556, "EPHEMERIS_TYPE": 0, "CLASSIFICATION_TYPE": "U", "NORAD_CAT_ID": 67125, "ELEMENT_SET_NO": 999, "REV_AT_EPOCH": 303, "BSTAR": -0.011038643, "MEAN_MOTION_DOT": -0.01764736, "MEAN_MOTION_DDOT": 0}, "tle": {"line1": "1 67125U 25299Z   25360.58337963 -.01764736  00000+0 -11039-1 0  9998", "line2": "2 67125  42.9975 231.7420 0001776 257.2326  33.5560 15.78783300  3036"}}, "geometry": {"type": "Point", "coordinates": [-103.56144778429088, 22.46865445251839]}}, {"type": "Feature", "properties": {"norad_id": 67126, "name": "STARLINK-36223", "group": "last-30-days", "lat": 23.601382899020635, "lon": -101.95286992792822, "alt_km": 334.05986352662876, "timestamp": "2025-12-26T20:30:44.703798+00:00", "meta": {"OBJECT_NAME": "STARLINK-36223", "OBJECT_ID": "2025-299AA", "EPOCH": "2025-12-26T14:00:04.000032", "MEAN_MOTION": 15.78783939, "ECCENTRICITY": 0.00018005, "INCLINATION": 42.9976, "RA_OF_ASC_NODE": 231.7372, "ARG_OF_PERICENTER": 256.8925, "MEAN_ANOMALY": 35.7608, "EPHEMERIS_TYPE": 0, "CLASSIFICATION_TYPE": "U", "NORAD_CAT_ID": 67126, "ELEMENT_SET_NO": 999, "REV_AT_EPOCH": 303, "BSTAR": -0.011018734, "MEAN_MOTION_DOT": -0.01762002, "MEAN_MOTION_DDOT": 0}, "tle": {"line1": "1 67126U 25299AA  25360.58337963 -.01762002  00000+0 -11019-1 0  9991", "line2": "2 67126  42.9976 231.7372 0001800 256.8925  35.7608 15.78783939  3037"}}, "geometry": {"type": "Point", "coordinates": [-101.95286992792822, 23.601382899020635]}}, {"type": "Feature", "properties": {"norad_id": 67127, "name": "STARLINK-36164", "group": "last-30-days", "lat": 24.64052642397374, "lon": -100.43030014576081, "alt_km": 333.89901775790076, "timestamp": "2025-12-26T20:30:44.703808+00:00", "meta": {"OBJECT_NAME": "STARLINK-36164", "OBJECT_ID": "2025-299AB", "EPOCH": "2025-12-26T14:00:04.000032", "MEAN_MOTION": 15.78791745, "ECCENTRICITY": 0.0001801, "INCLINATION": 42.9976, "RA_OF_ASC_NODE": 231.7329, "ARG_OF_PERICENTER": 256.9699, "MEAN_ANOMALY": 37.4133, "EPHEMERIS_TYPE": 0, "CLASSIFICATION_TYPE": "U", "NORAD_CAT_ID": 67127, "ELEMENT_SET_NO": 999, "REV_AT_EPOCH": 303, "BSTAR": -0.011023013, "MEAN_MOTION_DOT": -0.01763159, "MEAN_MOTION_DDOT": 0}, "tle": {"line1": "1 67127U 25299AB  25360.58337963 -.01763159  00000+0 -11023-1 0  9991", "line2": "2 67127  42.9976 231.7329 0001801 256.9699  37.4133 15.78791745  3036"}}, "geometry": {"type": "Point", "coordinates": [-100.43030014576081, 24.64052642397374]}}, {"type": "Feature", "properties": {"norad_id": 67128, "name": "STARLINK-35685", "group": "last-30-days", "lat": 27.273905546089882, "lon": -96.3376579822545, "alt_km": 333.43349800875603, "timestamp": "2025-12-26T20:30:44.703818+00:00", "meta": {"OBJECT_NAME": "STARLINK-35685", "OBJECT_ID": "2025-299AC", "EPOCH": "2025-12-26T14:00:04.000032", "MEAN_MOTION": 15.78771044, "ECCENTRICITY": 0.00016602, "INCLINATION": 42.9975, "RA_OF_ASC_NODE": 231.7211, "ARG_OF_PERICENTER": 263.4122, "MEAN_ANOMALY": 35.523, "EPHEMERIS_TYPE": 0, "CLASSIFICATION_TYPE": "U", "NORAD_CAT_ID": 67128, "ELEMENT_SET_NO": 999, "REV_AT_EPOCH": 303, "BSTAR": -0.011095707, "MEAN_MOTION_DOT": -0.01771779, "MEAN_MOTION_DDOT": 0}, "tle": {"line1": "1 67128U 25299AC  25360.58337963 -.01771779  00000+0 -11096-1 0  9999", "line2": "2 67128  42.9975 231.7211 0001660 263.4122  35.5230 15.78771044  3030"}}, "geometry": {"type": "Point", "coordinates": [-96.3376579822545, 27.273905546089882]}}, {"type": "Feature", "properties": {"norad_id": 67129, "name": "STARLINK-36214", "group": "last-30-days", "lat": 25.788538924003024, "lon": -98.69067762777934, "alt_km": 333.7399555836064, "timestamp": "2025-12-26T20:30:44.703827+00:00", "meta": {"OBJECT_NAME": "STARLINK-36214", "OBJECT_ID": "2025-299AD", "EPOCH": "2025-12-26T14:00:04.000032", "MEAN_MOTION": 15.78791076, "ECCENTRICITY": 0.0001804, "INCLINATION": 42.9977, "RA_OF_ASC_NODE": 231.7279, "ARG_OF_PERICENTER": 257.6124, "MEAN_ANOMALY": 38.7223, "EPHEMERIS_TYPE": 0, "CLASSIFICATION_TYPE": "U", "NORAD_CAT_ID": 67129, "ELEMENT_SET_NO": 999, "REV_AT_EPOCH": 303, "BSTAR": -0.011038476, "MEAN_MOTION_DOT": -0.01765289, "MEAN_MOTION_DDOT": 0}, "tle": {"line1": "1 67129U 25299AD  25360.58337963 -.01765289  00000+0 -11038-1 0  9995", "line2": "2 67129  42.9977 231.7279 0001804 257.6124  38.7223 15.78791076  3038"}}, "geometry": {"type": "Point", "coordinates": [-98.69067762777934, 25.788538924003024]}}, {"type": "Feature", "properties": {"norad_id": 67130, "name": "STARLINK-36194", "group": "last-30-days", "lat": 29.60821224162594, "lon": -92.36027233781847, "alt_km": 333.40563421644674, "timestamp": "2025-12-26T20:30:44.703843+00:00", "meta": {"OBJECT_NAME": "STARLINK-36194", "OBJECT_ID": "2025-299AE", "EPOCH": "2025-12-26T14:00:04.000032", "MEAN_MOTION": 15.78674599, "ECCENTRICITY": 0.0001498, "INCLINATION": 42.9976, "RA_OF_ASC_NODE": 231.7121, "ARG_OF_PERICENTER": 254.9519, "MEAN_ANOMALY": 48.2876, "EPHEMERIS_TYPE": 0, "CLASSIFICATION_TYPE": "U", "NORAD_CAT_ID": 67130, "ELEMENT_SET_NO": 999, "REV_AT_EPOCH": 303, "BSTAR": -0.011112375, "MEAN_MOTION_DOT": -0.01767109, "MEAN_MOTION_DDOT": 0}, "tle": {"line1": "1 67130U 25299AE  25360.58337963 -.01767109  00000+0 -11112-1 0  9993", "line2": "2 67130  42.9976 231.7121 0001498 254.9519  48.2876 15.78674599  3032"}}, "geometry": {"type": "Point", "coordinates": [-92.36027233781847, 29.60821224162594]}}]}